{
    "type": "FeatureCollection",
    "features": [
        {
            "type": "Feature",
            "properties": {
                "id": "lawn_1",
                "name": "Front Lawn",
                "type": "operation"
            },
            "geometry": {
                "type": "Polygon",
                "coordinates": [
                    [
                        [-43.2000978, -22.90009],
                        [-43.1999022, -22.90009],
                        [-43.1999022, -22.89991],
                        [-43.2000978, -22.89991],
                        [-43.2000978, -22.90009]
                    ]
                ]
            }
        }
    ]
}